[{"OBJECT_NAME":"STARLINK-37184","OBJECT_ID":"2026-063P","EPOCH":"2026-04-24T06:00:02.000160","MEAN_MOTION":15.75160144,"ECCENTRICITY":0.00013082,"INCLINATION":97.2841,"RA_OF_ASC_NODE":256.3427,"ARG_OF_PERICENTER":65.6054,"MEAN_ANOMALY":79.9787,"EPHEMERIS_TYPE":0,"CLASSIFICATION_TYPE":"U","NORAD_CAT_ID":68393,"ELEMENT_SET_NO":999,"REV_AT_EPOCH":578,"BSTAR":0.00029926938,"MEAN_MOTION_DOT":0.00044684,"MEAN_MOTION_DDOT":0},{"OBJECT_NAME":"STARLINK-37157","OBJECT_ID":"2026-063Q","EPOCH":"2026-04-22T13:07:29.912736","MEAN_MOTION":15.75206899,"ECCENTRICITY":0.00012074,"INCLINATION":97.2857,"RA_OF_ASC_NODE":254.4622,"ARG_OF_PERICENTER":69.5888,"MEAN_ANOMALY":290.5507,"EPHEMERIS_TYPE":0,"CLASSIFICATION_TYPE":"U","NORAD_CAT_ID":68394,"ELEMENT_SET_NO":999,"REV_AT_EPOCH":454,"BSTAR":0.00056503876,"MEAN_MOTION_DOT":0.00085054,"MEAN_MOTION_DDOT":0},{"OBJECT_NAME":"STARLINK-37172","OBJECT_ID":"2026-063R","EPOCH":"2026-04-22T11:24:19.198944","MEAN_MOTION":15.75268484,"ECCENTRICITY":0.00014399,"INCLINATION":97.2856,"RA_OF_ASC_NODE":254.4059,"ARG_OF_PERICENTER":88.8555,"MEAN_ANOMALY":271.2875,"EPHEMERIS_TYPE":0,"CLASSIFICATION_TYPE":"U","NORAD_CAT_ID":68395,"ELEMENT_SET_NO":999,"REV_AT_EPOCH":453,"BSTAR":0.00095878682,"MEAN_MOTION_DOT":0.00145842,"MEAN_MOTION_DDOT":0},{"OBJECT_NAME":"STARLINK-37190","OBJECT_ID":"2026-063S","EPOCH":"2026-04-22T13:34:41.915424","MEAN_MOTION":15.80908749,"ECCENTRICITY":0.0001259,"INCLINATION":97.2851,"RA_OF_ASC_NODE":254.5895,"ARG_OF_PERICENTER":57.776,"MEAN_ANOMALY":302.363,"EPHEMERIS_TYPE":0,"CLASSIFICATION_TYPE":"U","NORAD_CAT_ID":68396,"ELEMENT_SET_NO":999,"REV_AT_EPOCH":455,"BSTAR":0.0012311063,"MEAN_MOTION_DOT":0.00243399,"MEAN_MOTION_DDOT":0},{"OBJECT_NAME":"STARLINK-37194","OBJECT_ID":"2026-063T","EPOCH":"2026-04-24T00:00:02.999808","MEAN_MOTION":15.75225356,"ECCENTRICITY":0.00014032,"INCLINATION":97.2844,"RA_OF_ASC_NODE":256.0638,"ARG_OF_PERICENTER":104.828,"MEAN_ANOMALY":28.1095,"EPHEMERIS_TYPE":0,"CLASSIFICATION_TYPE":"U","NORAD_CAT_ID":68397,"ELEMENT_SET_NO":999,"REV_AT_EPOCH":574,"BSTAR":-0.00062699058,"MEAN_MOTION_DOT":-0.00092784,"MEAN_MOTION_DDOT":0},{"OBJECT_NAME":"STARLINK-37220","OBJECT_ID":"2026-063U","EPOCH":"2026-04-22T14:07:58.560672","MEAN_MOTION":15.75237259,"ECCENTRICITY":0.00011606,"INCLINATION":97.286,"RA_OF_ASC_NODE":254.5589,"ARG_OF_PERICENTER":3.7602,"MEAN_ANOMALY":356.3671,"EPHEMERIS_TYPE":0,"CLASSIFICATION_TYPE":"U","NORAD_CAT_ID":68398,"ELEMENT_SET_NO":999,"REV_AT_EPOCH":455,"BSTAR":0.00089163572,"MEAN_MOTION_DOT":0.00135265,"MEAN_MOTION_DDOT":0},{"OBJECT_NAME":"STARLINK-37187","OBJECT_ID":"2026-063V","EPOCH":"2026-04-22T01:22:13.380384","MEAN_MOTION":15.80891691,"ECCENTRICITY":0.0001287,"INCLINATION":97.2849,"RA_OF_ASC_NODE":254.0576,"ARG_OF_PERICENTER":67.7854,"MEAN_ANOMALY":292.3551,"EPHEMERIS_TYPE":0,"CLASSIFICATION_TYPE":"U","NORAD_CAT_ID":68399,"ELEMENT_SET_NO":999,"REV_AT_EPOCH":447,"BSTAR":0.001038247,"MEAN_MOTION_DOT":0.00204159,"MEAN_MOTION_DDOT":0},{"OBJECT_NAME":"STARLINK-36235","OBJECT_ID":"2026-063W","EPOCH":"2026-04-24T06:00:02.000160","MEAN_MOTION":15.75165859,"ECCENTRICITY":0.00013111,"INCLINATION":97.2843,"RA_OF_ASC_NODE":256.3366,"ARG_OF_PERICENTER":100.1161,"MEAN_ANOMALY":33.4721,"EPHEMERIS_TYPE":0,"CLASSIFICATION_TYPE":"U","NORAD_CAT_ID":68400,"ELEMENT_SET_NO":999,"REV_AT_EPOCH":578,"BSTAR":0.00020961613,"MEAN_MOTION_DOT":0.00031217,"MEAN_MOTION_DDOT":0},{"OBJECT_NAME":"STARLINK-37175","OBJECT_ID":"2026-063X","EPOCH":"2026-04-22T14:21:41.945760","MEAN_MOTION":15.75244062,"ECCENTRICITY":0.00016001,"INCLINATION":97.2857,"RA_OF_ASC_NODE":254.5451,"ARG_OF_PERICENTER":25.6121,"MEAN_ANOMALY":334.5224,"EPHEMERIS_TYPE":0,"CLASSIFICATION_TYPE":"U","NORAD_CAT_ID":68401,"ELEMENT_SET_NO":999,"REV_AT_EPOCH":455,"BSTAR":0.0011522669,"MEAN_MOTION_DOT":0.00175732,"MEAN_MOTION_DDOT":0},{"OBJECT_NAME":"STARLINK-36360","OBJECT_ID":"2026-063Y","EPOCH":"2026-04-22T09:16:15.622752","MEAN_MOTION":15.75223222,"ECCENTRICITY":0.00018331,"INCLINATION":97.2842,"RA_OF_ASC_NODE":254.3725,"ARG_OF_PERICENTER":100.6376,"MEAN_ANOMALY":259.5096,"EPHEMERIS_TYPE":0,"CLASSIFICATION_TYPE":"U","NORAD_CAT_ID":68402,"ELEMENT_SET_NO":999,"REV_AT_EPOCH":452,"BSTAR":0.00065849219,"MEAN_MOTION_DOT":0.00099385,"MEAN_MOTION_DDOT":0},{"OBJECT_NAME":"STARLINK-37218","OBJECT_ID":"2026-063Z","EPOCH":"2026-04-21T07:01:52.594176","MEAN_MOTION":15.8091466,"ECCENTRICITY":0.00014655,"INCLINATION":97.2849,"RA_OF_ASC_NODE":253.2602,"ARG_OF_PERICENTER":60.648,"MEAN_ANOMALY":299.4934,"EPHEMERIS_TYPE":0,"CLASSIFICATION_TYPE":"U","NORAD_CAT_ID":68403,"ELEMENT_SET_NO":999,"REV_AT_EPOCH":435,"BSTAR":0.0013375136,"MEAN_MOTION_DOT":0.00265189,"MEAN_MOTION_DDOT":0},{"OBJECT_NAME":"STARLINK-37188","OBJECT_ID":"2026-063AA","EPOCH":"2026-04-22T13:26:02.361120","MEAN_MOTION":15.80890905,"ECCENTRICITY":0.00011508,"INCLINATION":97.2853,"RA_OF_ASC_NODE":254.598,"ARG_OF_PERICENTER":54.2642,"MEAN_ANOMALY":305.8733,"EPHEMERIS_TYPE":0,"CLASSIFICATION_TYPE":"U","NORAD_CAT_ID":68404,"ELEMENT_SET_NO":999,"REV_AT_EPOCH":455,"BSTAR":0.0008332413,"MEAN_MOTION_DOT":0.00163036,"MEAN_MOTION_DDOT":0},{"OBJECT_NAME":"SHIYAN-33","OBJECT_ID":"2026-064A","EPOCH":"2026-04-24T06:25:16.001184","MEAN_MOTION":15.23402605,"ECCENTRICITY":0.00154539,"INCLINATION":97.4634,"RA_OF_ASC_NODE":190.0667,"ARG_OF_PERICENTER":132.73,"MEAN_ANOMALY":227.5241,"EPHEMERIS_TYPE":0,"CLASSIFICATION_TYPE":"U","NORAD_CAT_ID":68405,"ELEMENT_SET_NO":999,"REV_AT_EPOCH":428,"BSTAR":0.00017298122,"MEAN_MOTION_DOT":4.057e-5,"MEAN_MOTION_DDOT":0},{"OBJECT_NAME":"LPNTSAT-001 (IOD-1)","OBJECT_ID":"2026-065A","EPOCH":"2026-04-23T15:26:51.654624","MEAN_MOTION":15.18357645,"ECCENTRICITY":0.00166989,"INCLINATION":97.4089,"RA_OF_ASC_NODE":355.2945,"ARG_OF_PERICENTER":188.6279,"MEAN_ANOMALY":171.4671,"EPHEMERIS_TYPE":0,"CLASSIFICATION_TYPE":"U","NORAD_CAT_ID":68408,"ELEMENT_SET_NO":999,"REV_AT_EPOCH":398,"BSTAR":0.00010083876,"MEAN_MOTION_DOT":2.01e-5,"MEAN_MOTION_DDOT":0},{"OBJECT_NAME":"LPNTSAT-002 (IOD-2)","OBJECT_ID":"2026-065B","EPOCH":"2026-04-23T02:46:06.151008","MEAN_MOTION":15.1850728,"ECCENTRICITY":0.00138251,"INCLINATION":97.4072,"RA_OF_ASC_NODE":354.7751,"ARG_OF_PERICENTER":184.471,"MEAN_ANOMALY":175.6403,"EPHEMERIS_TYPE":0,"CLASSIFICATION_TYPE":"U","NORAD_CAT_ID":68409,"ELEMENT_SET_NO":999,"REV_AT_EPOCH":388,"BSTAR":0.00021778903,"MEAN_MOTION_DOT":4.436e-5,"MEAN_MOTION_DDOT":0},{"OBJECT_NAME":"XINZHENGCHENG-01","OBJECT_ID":"2026-066A","EPOCH":"2026-04-24T07:26:48.124608","MEAN_MOTION":14.8835729,"ECCENTRICITY":0.00276195,"INCLINATION":84.9636,"RA_OF_ASC_NODE":262.0182,"ARG_OF_PERICENTER":82.0695,"MEAN_ANOMALY":278.3662,"EPHEMERIS_TYPE":0,"CLASSIFICATION_TYPE":"U","NORAD_CAT_ID":68412,"ELEMENT_SET_NO":999,"REV_AT_EPOCH":371,"BSTAR":4.194331e-5,"MEAN_MOTION_DOT":4.21e-6,"MEAN_MOTION_DDOT":0}]
